[{"OBJECT_NAME":"MONITOR-3 (RS58S)","OBJECT_ID":"2023-091Q","EPOCH":"2026-03-09T23:24:02.583360","MEAN_MOTION":15.25747617,"ECCENTRICITY":0.0013676,"INCLINATION":97.5199,"RA_OF_ASC_NODE":131.7909,"ARG_OF_PERICENTER":91.0881,"MEAN_ANOMALY":269.1924,"EPHEMERIS_TYPE":0,"CLASSIFICATION_TYPE":"U","NORAD_CAT_ID":57180,"ELEMENT_SET_NO":999,"REV_AT_EPOCH":14915,"BSTAR":0.00054974842,"MEAN_MOTION_DOT":0.00014004,"MEAN_MOTION_DDOT":0},{"OBJECT_NAME":"STARLINK-30576","OBJECT_ID":"2023-158Q","EPOCH":"2026-03-09T06:07:05.038752","MEAN_MOTION":15.27569358,"ECCENTRICITY":0.000102,"INCLINATION":43.0047,"RA_OF_ASC_NODE":29.4883,"ARG_OF_PERICENTER":269.0144,"MEAN_ANOMALY":91.0591,"EPHEMERIS_TYPE":0,"CLASSIFICATION_TYPE":"U","NORAD_CAT_ID":58065,"ELEMENT_SET_NO":999,"REV_AT_EPOCH":13350,"BSTAR":6.1525351e-5,"MEAN_MOTION_DOT":1.431e-5,"MEAN_MOTION_DDOT":0}]
